STARLINK-35841          
1 67086U 25298M   25356.83335647 -.01718245  80246-3 -58728-2 0  9998
2 67086  69.9969 221.3346 0004405 266.1412 303.1334 15.89619032  2602
STARLINK-35842          
1 67087U 25298N   25356.83335647 -.01758000  83751-3 -60005-2 0  9997
2 67087  69.9969 221.3324 0004392 270.1173 300.9135 15.89651887  2601
STARLINK-35882          
1 67088U 25298P   25356.83335647 -.01851042  92229-3 -63064-2 0  9996
2 67088  69.9972 221.3299 0003569 264.5628 308.6351 15.89707025  2605
STARLINK-35763          
1 67089U 25298Q   25356.83335647 -.01886970  95600-3 -64272-2 0  9993
2 67089  69.9971 221.3270 0003800 267.9452 307.4865 15.89715321  2609
STARLINK-36060          
1 67090U 25298R   25356.83335647 -.01902733  97101-3 -64793-2 0  9997
2 67090  69.9967 221.3246 0003976 267.1041 310.1734 15.89720863  2545
STARLINK-36097          
1 67091U 25298S   25356.83335647 -.01936583  10037-2 -65919-2 0  9991
2 67091  69.9970 221.3222 0003776 265.8003 313.6636 15.89734868  2601
STARLINK-35792          
1 67092U 25298T   25356.83335647 -.01951819  10185-2 -66420-2 0  9993
2 67092  69.9969 221.3201 0004027 269.6692 311.6470 15.89740125  2543
STARLINK-35784          
1 67093U 25298U   25356.83335647 -.02011325  10778-2 -68359-2 0  9995
2 67093  69.9966 221.3176 0003826 266.8086 316.4916 15.89773774  2605
STARLINK-36202          
1 67094U 25298V   25356.83335647 -.02009913  10763-2 -68341-2 0  9991
2 67094  69.9965 221.3146 0004334 274.8338 310.7035 15.89761376  2600
STARLINK-36227          
1 67095U 25298W   25356.83335647 -.01993831  10600-2 -67852-2 0  9998
2 67095  69.9963 221.3120 0003549 269.7328 317.8966 15.89747771  2547
STARLINK-36228          
1 67096U 25298X   25356.83335647 -.01986867  10531-2 -67592-2 0  9994
2 67096  69.9966 221.3101 0003900 266.4782 322.9242 15.89751373  2546
STARLINK-36222          
1 67097U 25298Y   25356.83335647 -.01979668  10459-2 -67358-2 0  9995
2 67097  69.9964 221.3075 0004068 265.1441 326.2814 15.89746069  2547
