CCSDS_OMM_VERS = 2.0
CREATION_DATE  = 
ORIGINATOR     = 

OBJECT_NAME    = STARLINK-35841
OBJECT_ID      = 2025-298M
CENTER_NAME    = EARTH
REF_FRAME      = TEME
TIME_SYSTEM    = UTC
MEAN_ELEMENT_THEORY = SGP/SGP4

EPOCH          = 2025-12-22T20:00:01.999008
MEAN_MOTION    = 15.89619032
ECCENTRICITY   = .0004405
INCLINATION    = 69.9969
RA_OF_ASC_NODE = 221.3346
ARG_OF_PERICENTER = 266.1412
MEAN_ANOMALY   = 303.1334

EPHEMERIS_TYPE = 0
CLASSIFICATION_TYPE = U
NORAD_CAT_ID   = 67086
ELEMENT_SET_NO = 999
REV_AT_EPOCH   = 260
BSTAR          = -.58728E-2
MEAN_MOTION_DOT = -.1718245E-1
MEAN_MOTION_DDOT = .80246E-3

CCSDS_OMM_VERS = 2.0
CREATION_DATE  = 
ORIGINATOR     = 

OBJECT_NAME    = STARLINK-35842
OBJECT_ID      = 2025-298N
CENTER_NAME    = EARTH
REF_FRAME      = TEME
TIME_SYSTEM    = UTC
MEAN_ELEMENT_THEORY = SGP/SGP4

EPOCH          = 2025-12-22T20:00:01.999008
MEAN_MOTION    = 15.89651887
ECCENTRICITY   = .0004392
INCLINATION    = 69.9969
RA_OF_ASC_NODE = 221.3324
ARG_OF_PERICENTER = 270.1173
MEAN_ANOMALY   = 300.9135

EPHEMERIS_TYPE = 0
CLASSIFICATION_TYPE = U
NORAD_CAT_ID   = 67087
ELEMENT_SET_NO = 999
REV_AT_EPOCH   = 260
BSTAR          = -.60005E-2
MEAN_MOTION_DOT = -.1758E-1
MEAN_MOTION_DDOT = .83751E-3

CCSDS_OMM_VERS = 2.0
CREATION_DATE  = 
ORIGINATOR     = 

OBJECT_NAME    = STARLINK-35882
OBJECT_ID      = 2025-298P
CENTER_NAME    = EARTH
REF_FRAME      = TEME
TIME_SYSTEM    = UTC
MEAN_ELEMENT_THEORY = SGP/SGP4

EPOCH          = 2025-12-22T20:00:01.999008
MEAN_MOTION    = 15.89707025
ECCENTRICITY   = .0003569
INCLINATION    = 69.9972
RA_OF_ASC_NODE = 221.3299
ARG_OF_PERICENTER = 264.5628
MEAN_ANOMALY   = 308.6351

EPHEMERIS_TYPE = 0
CLASSIFICATION_TYPE = U
NORAD_CAT_ID   = 67088
ELEMENT_SET_NO = 999
REV_AT_EPOCH   = 260
BSTAR          = -.63064E-2
MEAN_MOTION_DOT = -.1851042E-1
MEAN_MOTION_DDOT = .92229E-3

CCSDS_OMM_VERS = 2.0
CREATION_DATE  = 
ORIGINATOR     = 

OBJECT_NAME    = STARLINK-35763
OBJECT_ID      = 2025-298Q
CENTER_NAME    = EARTH
REF_FRAME      = TEME
TIME_SYSTEM    = UTC
MEAN_ELEMENT_THEORY = SGP/SGP4

EPOCH          = 2025-12-22T20:00:01.999008
MEAN_MOTION    = 15.89715321
ECCENTRICITY   = .00038
INCLINATION    = 69.9971
RA_OF_ASC_NODE = 221.3270
ARG_OF_PERICENTER = 267.9452
MEAN_ANOMALY   = 307.4865

EPHEMERIS_TYPE = 0
CLASSIFICATION_TYPE = U
NORAD_CAT_ID   = 67089
ELEMENT_SET_NO = 999
REV_AT_EPOCH   = 260
BSTAR          = -.64272E-2
MEAN_MOTION_DOT = -.188697E-1
MEAN_MOTION_DDOT = .956E-3

CCSDS_OMM_VERS = 2.0
CREATION_DATE  = 
ORIGINATOR     = 

OBJECT_NAME    = STARLINK-36060
OBJECT_ID      = 2025-298R
CENTER_NAME    = EARTH
REF_FRAME      = TEME
TIME_SYSTEM    = UTC
MEAN_ELEMENT_THEORY = SGP/SGP4

EPOCH          = 2025-12-22T20:00:01.999008
MEAN_MOTION    = 15.89720863
ECCENTRICITY   = .0003976
INCLINATION    = 69.9967
RA_OF_ASC_NODE = 221.3246
ARG_OF_PERICENTER = 267.1041
MEAN_ANOMALY   = 310.1734

EPHEMERIS_TYPE = 0
CLASSIFICATION_TYPE = U
NORAD_CAT_ID   = 67090
ELEMENT_SET_NO = 999
REV_AT_EPOCH   = 254
BSTAR          = -.64793E-2
MEAN_MOTION_DOT = -.1902733E-1
MEAN_MOTION_DDOT = .97101E-3

CCSDS_OMM_VERS = 2.0
CREATION_DATE  = 
ORIGINATOR     = 

OBJECT_NAME    = STARLINK-36097
OBJECT_ID      = 2025-298S
CENTER_NAME    = EARTH
REF_FRAME      = TEME
TIME_SYSTEM    = UTC
MEAN_ELEMENT_THEORY = SGP/SGP4

EPOCH          = 2025-12-22T20:00:01.999008
MEAN_MOTION    = 15.89734868
ECCENTRICITY   = .0003776
INCLINATION    = 69.9970
RA_OF_ASC_NODE = 221.3222
ARG_OF_PERICENTER = 265.8003
MEAN_ANOMALY   = 313.6636

EPHEMERIS_TYPE = 0
CLASSIFICATION_TYPE = U
NORAD_CAT_ID   = 67091
ELEMENT_SET_NO = 999
REV_AT_EPOCH   = 260
BSTAR          = -.65919E-2
MEAN_MOTION_DOT = -.1936583E-1
MEAN_MOTION_DDOT = .10037E-2

CCSDS_OMM_VERS = 2.0
CREATION_DATE  = 
ORIGINATOR     = 

OBJECT_NAME    = STARLINK-35792
OBJECT_ID      = 2025-298T
CENTER_NAME    = EARTH
REF_FRAME      = TEME
TIME_SYSTEM    = UTC
MEAN_ELEMENT_THEORY = SGP/SGP4

EPOCH          = 2025-12-22T20:00:01.999008
MEAN_MOTION    = 15.89740125
ECCENTRICITY   = .0004027
INCLINATION    = 69.9969
RA_OF_ASC_NODE = 221.3201
ARG_OF_PERICENTER = 269.6692
MEAN_ANOMALY   = 311.6470

EPHEMERIS_TYPE = 0
CLASSIFICATION_TYPE = U
NORAD_CAT_ID   = 67092
ELEMENT_SET_NO = 999
REV_AT_EPOCH   = 254
BSTAR          = -.6642E-2
MEAN_MOTION_DOT = -.1951819E-1
MEAN_MOTION_DDOT = .10185E-2

CCSDS_OMM_VERS = 2.0
CREATION_DATE  = 
ORIGINATOR     = 

OBJECT_NAME    = STARLINK-35784
OBJECT_ID      = 2025-298U
CENTER_NAME    = EARTH
REF_FRAME      = TEME
TIME_SYSTEM    = UTC
MEAN_ELEMENT_THEORY = SGP/SGP4

EPOCH          = 2025-12-22T20:00:01.999008
MEAN_MOTION    = 15.89773774
ECCENTRICITY   = .0003826
INCLINATION    = 69.9966
RA_OF_ASC_NODE = 221.3176
ARG_OF_PERICENTER = 266.8086
MEAN_ANOMALY   = 316.4916

EPHEMERIS_TYPE = 0
CLASSIFICATION_TYPE = U
NORAD_CAT_ID   = 67093
ELEMENT_SET_NO = 999
REV_AT_EPOCH   = 260
BSTAR          = -.68359E-2
MEAN_MOTION_DOT = -.2011325E-1
MEAN_MOTION_DDOT = .10778E-2

CCSDS_OMM_VERS = 2.0
CREATION_DATE  = 
ORIGINATOR     = 

OBJECT_NAME    = STARLINK-36202
OBJECT_ID      = 2025-298V
CENTER_NAME    = EARTH
REF_FRAME      = TEME
TIME_SYSTEM    = UTC
MEAN_ELEMENT_THEORY = SGP/SGP4

EPOCH          = 2025-12-22T20:00:01.999008
MEAN_MOTION    = 15.89761376
ECCENTRICITY   = .0004334
INCLINATION    = 69.9965
RA_OF_ASC_NODE = 221.3146
ARG_OF_PERICENTER = 274.8338
MEAN_ANOMALY   = 310.7035

EPHEMERIS_TYPE = 0
CLASSIFICATION_TYPE = U
NORAD_CAT_ID   = 67094
ELEMENT_SET_NO = 999
REV_AT_EPOCH   = 260
BSTAR          = -.68341E-2
MEAN_MOTION_DOT = -.2009913E-1
MEAN_MOTION_DDOT = .10763E-2

CCSDS_OMM_VERS = 2.0
CREATION_DATE  = 
ORIGINATOR     = 

OBJECT_NAME    = STARLINK-36227
OBJECT_ID      = 2025-298W
CENTER_NAME    = EARTH
REF_FRAME      = TEME
TIME_SYSTEM    = UTC
MEAN_ELEMENT_THEORY = SGP/SGP4

EPOCH          = 2025-12-22T20:00:01.999008
MEAN_MOTION    = 15.89747771
ECCENTRICITY   = .0003549
INCLINATION    = 69.9963
RA_OF_ASC_NODE = 221.3120
ARG_OF_PERICENTER = 269.7328
MEAN_ANOMALY   = 317.8966

EPHEMERIS_TYPE = 0
CLASSIFICATION_TYPE = U
NORAD_CAT_ID   = 67095
ELEMENT_SET_NO = 999
REV_AT_EPOCH   = 254
BSTAR          = -.67852E-2
MEAN_MOTION_DOT = -.1993831E-1
MEAN_MOTION_DDOT = .106E-2

CCSDS_OMM_VERS = 2.0
CREATION_DATE  = 
ORIGINATOR     = 

OBJECT_NAME    = STARLINK-36228
OBJECT_ID      = 2025-298X
CENTER_NAME    = EARTH
REF_FRAME      = TEME
TIME_SYSTEM    = UTC
MEAN_ELEMENT_THEORY = SGP/SGP4

EPOCH          = 2025-12-22T20:00:01.999008
MEAN_MOTION    = 15.89751373
ECCENTRICITY   = .00039
INCLINATION    = 69.9966
RA_OF_ASC_NODE = 221.3101
ARG_OF_PERICENTER = 266.4782
MEAN_ANOMALY   = 322.9242

EPHEMERIS_TYPE = 0
CLASSIFICATION_TYPE = U
NORAD_CAT_ID   = 67096
ELEMENT_SET_NO = 999
REV_AT_EPOCH   = 254
BSTAR          = -.67592E-2
MEAN_MOTION_DOT = -.1986867E-1
MEAN_MOTION_DDOT = .10531E-2

CCSDS_OMM_VERS = 2.0
CREATION_DATE  = 
ORIGINATOR     = 

OBJECT_NAME    = STARLINK-36222
OBJECT_ID      = 2025-298Y
CENTER_NAME    = EARTH
REF_FRAME      = TEME
TIME_SYSTEM    = UTC
MEAN_ELEMENT_THEORY = SGP/SGP4

EPOCH          = 2025-12-22T20:00:01.999008
MEAN_MOTION    = 15.89746069
ECCENTRICITY   = .0004068
INCLINATION    = 69.9964
RA_OF_ASC_NODE = 221.3075
ARG_OF_PERICENTER = 265.1441
MEAN_ANOMALY   = 326.2814

EPHEMERIS_TYPE = 0
CLASSIFICATION_TYPE = U
NORAD_CAT_ID   = 67097
ELEMENT_SET_NO = 999
REV_AT_EPOCH   = 254
BSTAR          = -.67358E-2
MEAN_MOTION_DOT = -.1979668E-1
MEAN_MOTION_DDOT = .10459E-2

